{
  "type": "FeatureCollection",
  "features": [
    {
      "type": "Feature",
      "properties": {
        "norad_id": 43262,
        "name": "GAOFEN-1 04",
        "group": "resource",
        "lat": -80.24831434026406,
        "lon": 113.52086850471015,
        "alt_km": 648.2502542091961,
        "timestamp": "2025-12-25T22:42:16.654034+00:00",
        "meta_object_name": "GAOFEN-1 04",
        "meta_object_id": "2018-031D",
        "meta_epoch": "2025-12-25T18:12:26.868384",
        "meta_mean_motion": 14.76432757,
        "meta_eccentricity": 5.2e-05,
        "meta_inclination": 98.0786,
        "meta_ra_of_asc_node": 57.5976,
        "meta_arg_of_pericenter": 61.1447,
        "meta_mean_anomaly": 298.9814,
        "meta_ephemeris_type": 0,
        "meta_classification_type": "U",
        "meta_norad_cat_id": 43262,
        "meta_element_set_no": 999,
        "meta_rev_at_epoch": 41709,
        "meta_bstar": 0.00016124,
        "meta_mean_motion_dot": 1.069e-05,
        "meta_mean_motion_ddot": 0,
        "tle_line1": "1 43262U 18031D   25359.75864431  .00001069  00000+0  16124-3 0  9994",
        "tle_line2": "2 43262  98.0786  57.5976 0000520  61.1447 298.9814 14.76432757417094"
      },
      "geometry": {
        "type": "Point",
        "coordinates": [
          113.52086850471015,
          -80.24831434026406
        ]
      }
    },
    {
      "type": "Feature",
      "properties": {
        "norad_id": 43437,
        "name": "SENTINEL-3B",
        "group": "resource",
        "lat": -61.72488209203186,
        "lon": -131.44915867941054,
        "alt_km": 810.8245103050194,
        "timestamp": "2025-12-25T22:42:16.654044+00:00",
        "meta_object_name": "SENTINEL-3B",
        "meta_object_id": "2018-039A",
        "meta_epoch": "2025-12-25T18:12:12.174336",
        "meta_mean_motion": 14.26739017,
        "meta_eccentricity": 0.0001586,
        "meta_inclination": 98.6249,
        "meta_ra_of_asc_node": 64.7561,
        "meta_arg_of_pericenter": 88.7501,
        "meta_mean_anomaly": 271.3861,
        "meta_ephemeris_type": 0,
        "meta_classification_type": "U",
        "meta_norad_cat_id": 43437,
        "meta_element_set_no": 999,
        "meta_rev_at_epoch": 39939,
        "meta_bstar": 7.9528e-05,
        "meta_mean_motion_dot": 1.49e-06,
        "meta_mean_motion_ddot": 0,
        "tle_line1": "1 43437U 18039A   25359.75847424  .00000149  00000+0  79528-4 0  9995",
        "tle_line2": "2 43437  98.6249  64.7561 0001586  88.7501 271.3861 14.26739017399390"
      },
      "geometry": {
        "type": "Point",
        "coordinates": [
          -131.44915867941054,
          -61.72488209203186
        ]
      }
    },
    {
      "type": "Feature",
      "properties": {
        "norad_id": 43461,
        "name": "GAOFEN-5 01",
        "group": "resource",
        "lat": 30.409348475336603,
        "lon": -41.850990022789645,
        "alt_km": 690.5442780808753,
        "timestamp": "2025-12-25T22:42:16.654055+00:00",
        "meta_object_name": "GAOFEN-5 01",
        "meta_object_id": "2018-043A",
        "meta_epoch": "2025-12-25T11:03:13.805280",
        "meta_mean_motion": 14.60423137,
        "meta_eccentricity": 5.4e-05,
        "meta_inclination": 98.4346,
        "meta_ra_of_asc_node": 322.6511,
        "meta_arg_of_pericenter": 238.5141,
        "meta_mean_anomaly": 121.6006,
        "meta_ephemeris_type": 0,
        "meta_classification_type": "U",
        "meta_norad_cat_id": 43461,
        "meta_element_set_no": 999,
        "meta_rev_at_epoch": 40633,
        "meta_bstar": 0.00010964,
        "meta_mean_motion_dot": 4.82e-06,
        "meta_mean_motion_ddot": 0,
        "tle_line1": "1 43461U 18043A   25359.46057645  .00000482  00000+0  10964-3 0  9991",
        "tle_line2": "2 43461  98.4346 322.6511 0000540 238.5141 121.6006 14.60423137406330"
      },
      "geometry": {
        "type": "Point",
        "coordinates": [
          -41.850990022789645,
          30.409348475336603
        ]
      }
    },
    {
      "type": "Feature",
      "properties": {
        "norad_id": 43484,
        "name": "GAOFEN-6",
        "group": "resource",
        "lat": 71.31041454591542,
        "lon": 39.86057247378922,
        "alt_km": 627.4407343382754,
        "timestamp": "2025-12-25T22:42:16.654065+00:00",
        "meta_object_name": "GAOFEN-6",
        "meta_object_id": "2018-048A",
        "meta_epoch": "2025-12-25T17:29:49.485408",
        "meta_mean_motion": 14.76588011,
        "meta_eccentricity": 0.0012528,
        "meta_inclination": 97.801,
        "meta_ra_of_asc_node": 63.5587,
        "meta_arg_of_pericenter": 24.8634,
        "meta_mean_anomaly": 335.3178,
        "meta_ephemeris_type": 0,
        "meta_classification_type": "U",
        "meta_norad_cat_id": 43484,
        "meta_element_set_no": 999,
        "meta_rev_at_epoch": 40779,
        "meta_bstar": 0.00010289,
        "meta_mean_motion_dot": 6.69e-06,
        "meta_mean_motion_ddot": 0,
        "tle_line1": "1 43484U 18048A   25359.72904497  .00000669  00000+0  10289-3 0  9993",
        "tle_line2": "2 43484  97.8010  63.5587 0012528  24.8634 335.3178 14.76588011407797"
      },
      "geometry": {
        "type": "Point",
        "coordinates": [
          39.86057247378922,
          71.31041454591542
        ]
      }
    },
    {
      "type": "Feature",
      "properties": {
        "norad_id": 43585,
        "name": "GAOFEN-11 01",
        "group": "resource",
        "lat": 80.75447993934218,
        "lon": -66.73510152763765,
        "alt_km": 412.81573548005144,
        "timestamp": "2025-12-25T22:42:16.654075+00:00",
        "meta_object_name": "GAOFEN-11 01",
        "meta_object_id": "2018-063A",
        "meta_epoch": "2025-12-25T17:38:33.976608",
        "meta_mean_motion": 15.49585838,
        "meta_eccentricity": 0.0003919,
        "meta_inclination": 97.1534,
        "meta_ra_of_asc_node": 62.5624,
        "meta_arg_of_pericenter": 246.2401,
        "meta_mean_anomaly": 113.844,
        "meta_ephemeris_type": 0,
        "meta_classification_type": "U",
        "meta_norad_cat_id": 43585,
        "meta_element_set_no": 999,
        "meta_rev_at_epoch": 41343,
        "meta_bstar": 0.00032022,
        "meta_mean_motion_dot": 0.00017614,
        "meta_mean_motion_ddot": 0,
        "tle_line1": "1 43585U 18063A   25359.73511547  .00017614  00000+0  32022-3 0  9990",
        "tle_line2": "2 43585  97.1534  62.5624 0003919 246.2401 113.8440 15.49585838413434"
      },
      "geometry": {
        "type": "Point",
        "coordinates": [
          -66.73510152763765,
          80.75447993934218
        ]
      }
    },
    {
      "type": "Feature",
      "properties": {
        "norad_id": 43613,
        "name": "ICESAT-2",
        "group": "resource",
        "lat": -84.82622528989272,
        "lon": 41.55707321987847,
        "alt_km": 490.469365547865,
        "timestamp": "2025-12-25T22:42:16.654091+00:00",
        "meta_object_name": "ICESAT-2",
        "meta_object_id": "2018-070A",
        "meta_epoch": "2025-12-25T16:49:59.030688",
        "meta_mean_motion": 15.28248594,
        "meta_eccentricity": 0.0003118,
        "meta_inclination": 92.0035,
        "meta_ra_of_asc_node": 244.2353,
        "meta_arg_of_pericenter": 109.4364,
        "meta_mean_anomaly": 250.7223,
        "meta_ephemeris_type": 0,
        "meta_classification_type": "U",
        "meta_norad_cat_id": 43613,
        "meta_element_set_no": 999,
        "meta_rev_at_epoch": 40596,
        "meta_bstar": 0.00048082,
        "meta_mean_motion_dot": 0.00013235,
        "meta_mean_motion_ddot": 0,
        "tle_line1": "1 43613U 18070A   25359.70137767  .00013235  00000+0  48082-3 0  9993",
        "tle_line2": "2 43613  92.0035 244.2353 0003118 109.4364 250.7223 15.28248594405964"
      },
      "geometry": {
        "type": "Point",
        "coordinates": [
          41.55707321987847,
          -84.82622528989272
        ]
      }
    },
    {
      "type": "Feature",
      "properties": {
        "norad_id": 43719,
        "name": "HYSIS",
        "group": "resource",
        "lat": -27.257566764726043,
        "lon": -121.30098210443587,
        "alt_km": 639.800034130365,
        "timestamp": "2025-12-25T22:42:16.654102+00:00",
        "meta_object_name": "HYSIS",
        "meta_object_id": "2018-096A",
        "meta_epoch": "2025-12-25T18:31:16.747968",
        "meta_mean_motion": 14.78680186,
        "meta_eccentricity": 8.31e-05,
        "meta_inclination": 98.0077,
        "meta_ra_of_asc_node": 62.6847,
        "meta_arg_of_pericenter": 54.3112,
        "meta_mean_anomaly": 305.8176,
        "meta_ephemeris_type": 0,
        "meta_classification_type": "U",
        "meta_norad_cat_id": 43719,
        "meta_element_set_no": 999,
        "meta_rev_at_epoch": 38179,
        "meta_bstar": 0.00019521,
        "meta_mean_motion_dot": 1.379e-05,
        "meta_mean_motion_ddot": 0,
        "tle_line1": "1 43719U 18096A   25359.77172162  .00001379  00000+0  19521-3 0  9995",
        "tle_line2": "2 43719  98.0077  62.6847 0000831  54.3112 305.8176 14.78680186381795"
      },
      "geometry": {
        "type": "Point",
        "coordinates": [
          -121.30098210443587,
          -27.257566764726043
        ]
      }
    }
  ]
}